IONOSFERA-M 2           
1 61736U 24199B   26177.22977942  .00000055  00000+0  44313-4 0  9991
2 61736  98.7163  50.2166 0000657  39.1498 320.9727 14.22759120132112
PRSC-EO1                
1 62725U 25012A   26177.29044030  .00007993  00000+0  39934-3 0  9995
2 62725  97.4227 249.5721 0005538 214.0863 146.0016 15.17716403 79571
BIOMASS                 
1 63772U 25090A   26176.41992450  .00000661  00000+0  12495-3 0  9993
2 63772  98.0741   3.6181 0001429  94.8977 265.2391 14.67536962 61896
GOSAT-GW (IBUKI GW)     
1 64694U 25141A   26177.25828166  .00000551  00000+0  10549-3 0  9995
2 64694  98.0567 114.4279 0001452  85.7748 274.3622 14.67552194 53171
IONOSFERA-M 3           
1 64876U 25155A   26177.32596404  .00000036  00000+0  36122-4 0  9991
2 64876  98.6027 139.0010 0001544 141.5445 218.5843 14.21487930 47705
IONOSFERA-M 4           
1 64877U 25155B   26177.22001339  .00000049  00000+0  41957-4 0  9995
2 64877  98.6026 138.8150 0001368 116.3768 243.7550 14.21490288 47681
MICROCARB               
1 64899U 25156A   26177.18802798  .00000523  00000+0  90083-4 0  9994
2 64899  97.9923 254.1700 0015437 237.4482 122.5235 14.72532109 49294
CO3D 3                  
1 64900U 25156B   26177.20535391  .00004629  00000+0  21685-3 0  9994
2 64900  97.4332 255.7688 0001737 116.7692 243.3721 15.20195939 50900
CO3D 4                  
1 64901U 25156C   26177.20550628  .00004383  00000+0  20550-3 0  9992
2 64901  97.4334 255.7689 0000363 186.8264 173.2967 15.20197369 50903
CO3D 2                  
1 64902U 25156D   26177.23798508  .00005167  00000+0  24164-3 0  9993
2 64902  97.4334 255.6995 0001504 100.6879 259.4525 15.20202863 50900
CO3D 1                  
1 64903U 25156E   26177.23813442  .00005336  00000+0  24948-3 0  9997
2 64903  97.4333 255.6996 0001371 107.9362 252.2023 15.20196827 50906
PRSC-S1                 
1 65055U 25164A   26177.28015958  .00003936  00000+0  27331-3 0  9999
2 65055  41.1297 236.5983 0005267  49.2376 310.8895 15.06523702 49800
SENTINEL-6B             
1 66514U 25264A   26177.22071581 -.00000071  00000+0 -45376-4 0  9998
2 66514  66.0408 116.4160 0007968 269.0262  90.9841 12.80930005 28328
CAS500-3                
1 66655U 25274F   26177.29140006  .00001252  00000+0  14104-3 0  9995
2 66655  97.7445 105.1354 0006962  87.1779 273.0235 14.88341368 31504
CSG-3                   
1 67304U 26001A   26177.24544119  .00000317  00000+0  46385-4 0  9992
2 67304  97.8888   0.7160 0001451  96.7567 263.3811 14.82159513 25803
PRSC-E03                
1 68835U 26092A   26177.06903943  .00002915  00000+0  19962-3 0  9992
2 68835  38.0020  37.3045 0002662  93.7021 266.4045 15.06712084  9296
CAS500-2                
1 69013U 26100AK  26177.23313307  .00007035  00000+0  32282-3 0  9997
2 69013  97.3905  74.9264 0009627   6.1174 354.0177 15.20690748  8185
