OBJECT_NAME,OBJECT_ID,EPOCH,MEAN_MOTION,ECCENTRICITY,INCLINATION,RA_OF_ASC_NODE,ARG_OF_PERICENTER,MEAN_ANOMALY,EPHEMERIS_TYPE,CLASSIFICATION_TYPE,NORAD_CAT_ID,ELEMENT_SET_NO,REV_AT_EPOCH,BSTAR,MEAN_MOTION_DOT,MEAN_MOTION_DDOT
IONOSFERA-M 2,2024-199B,2026-06-26T05:30:52.941888,14.22759120,.00006576,98.7163,50.2166,39.1498,320.9727,0,U,61736,999,13211,.44312563E-4,.55E-6,0
PRSC-EO1,2025-012A,2026-06-26T06:58:14.041920,15.17716403,.00055385,97.4227,249.5721,214.0863,146.0016,0,U,62725,999,7957,.39934305E-3,.7993E-4,0
BIOMASS,2025-090A,2026-06-25T10:04:41.476800,14.67536962,.0001429,98.0741,3.6181,94.8977,265.2391,0,U,63772,999,6189,.12495E-3,.661E-5,0
GOSAT-GW (IBUKI GW),2025-141A,2026-06-26T06:11:55.535424,14.67552194,.00014522,98.0567,114.4279,85.7748,274.3622,0,U,64694,999,5317,.10549173E-3,.551E-5,0
IONOSFERA-M 3,2025-155A,2026-06-26T07:49:23.293056,14.21487930,.00015448,98.6027,139.0010,141.5445,218.5843,0,U,64876,999,4770,.3612167E-4,.36E-6,0
IONOSFERA-M 4,2025-155B,2026-06-26T05:16:49.156896,14.21490288,.00013682,98.6026,138.8150,116.3768,243.7550,0,U,64877,999,4768,.41956761E-4,.49E-6,0
MICROCARB,2025-156A,2026-06-26T04:30:45.617472,14.72532109,.00154378,97.9923,254.1700,237.4482,122.5235,0,U,64899,999,4929,.90082966E-4,.523E-5,0
CO3D 3,2025-156B,2026-06-26T04:55:42.577824,15.20195939,.0001737,97.4332,255.7688,116.7692,243.3721,0,U,64900,999,5090,.21684705E-3,.4629E-4,0
CO3D 4,2025-156C,2026-06-26T04:55:55.742592,15.20197369,.00003638,97.4334,255.7689,186.8264,173.2967,0,U,64901,999,5090,.20550031E-3,.4383E-4,0
CO3D 2,2025-156D,2026-06-26T05:42:41.910912,15.20202863,.00015042,97.4334,255.6995,100.6879,259.4525,0,U,64902,999,5090,.24163855E-3,.5167E-4,0
CO3D 1,2025-156E,2026-06-26T05:42:54.813888,15.20196827,.00013716,97.4333,255.6996,107.9362,252.2023,0,U,64903,999,5090,.24947831E-3,.5336E-4,0
PRSC-S1,2025-164A,2026-06-26T06:43:25.787712,15.06523702,.00052673,41.1297,236.5983,49.2376,310.8895,0,U,65055,999,4980,.27330603E-3,.3936E-4,0
SENTINEL-6B,2025-264A,2026-06-26T05:17:49.845984,12.80930005,.00079686,66.0408,116.4160,269.0262,90.9841,0,U,66514,999,2832,-.45375514E-4,-.71E-6,0
CAS500-3,2025-274F,2026-06-26T06:59:36.965184,14.88341368,.0006962,97.7445,105.1354,87.1779,273.0235,0,U,66655,999,3150,.14104297E-3,.1252E-4,0
CSG-3,2026-001A,2026-06-26T05:53:26.118816,14.82159513,.00014517,97.8888,0.7160,96.7567,263.3811,0,U,67304,999,2580,.46384512E-4,.317E-5,0
PRSC-E03,2026-092A,2026-06-26T01:39:25.006752,15.06712084,.0002662,38.0020,37.3045,93.7021,266.4045,0,U,68835,999,929,.19962031E-3,.2915E-4,0
CAS500-2,2026-100AK,2026-06-26T05:35:42.697248,15.20690748,.00096278,97.3905,74.9264,6.1174,354.0177,0,U,69013,999,818,.32282047E-3,.7035E-4,0
